NORAD_CAT_ID,OBJECT_NAME,OBJECT_TYPE,EPOCH,MEAN_MOTION,ECCENTRICITY,INCLINATION,RA_OF_ASC_NODE,ARG_OF_PERICENTER,MEAN_ANOMALY,BSTAR,MEAN_MOTION_DOT,MEAN_MOTION_DDOT,TLE_LINE0,TLE_LINE1,TLE_LINE2,SEMIMAJOR_AXIS,PERIOD,APOGEE,PERIGEE,DECAYED
55942.0,STARLINK-5917,PAYLOAD,2023-07-18 22:00:00,15.23460039,0.0003262,69.9991,197.484,266.5789,105.6795,-0.040606,-0.00901321,0.0,0 STARLINK-5917,1 55942U 23037AE  23199.91667824 -.00901321  00000-0 -40606-1 0  9992,2 55942  69.9991 197.4840 0003262 266.5789 105.6795 15.23460039 19791,6873.551,94.522,497.658,493.173,0.0
55942.0,STARLINK-5917,PAYLOAD,2023-07-19 14:00:01,15.22188627,0.0003181,69.9992,195.7381,276.203,149.7294,-0.045865,-0.00974398,0.0,0 STARLINK-5917,1 55942U 23037AE  23200.58334491 -.00974398  00000-0 -45865-1 0  9995,2 55942  69.9992 195.7381 0003181 276.2030 149.7294 15.22188627 19893,6877.377,94.601,501.43,497.055,0.0
55942.0,STARLINK-5917,PAYLOAD,2023-07-20 06:00:00,15.2083066,0.0003123,69.9997,193.9959,275.3734,201.1274,-0.043058,-0.0088542,0.0,0 STARLINK-5917,1 55942U 23037AE  23201.25001157 -.00885420  00000-0 -43058-1 0  9999,2 55942  69.9997 193.9959 0003123 275.3734 201.1274 15.20830660 19997,6881.471,94.685,505.485,501.187,0.0
55942.0,STARLINK-5917,PAYLOAD,2023-07-20 22:00:00,15.19562514,0.000299,69.9998,192.2572,268.3888,255.5126,-0.046898,-0.00926115,0.0,0 STARLINK-5917,1 55942U 23037AE  23201.91667824 -.00926115  00000-0 -46898-1 0  9993,2 55942  69.9998 192.2572 0002990 268.3888 255.5126 15.19562514 20094,6885.299,94.764,509.223,505.105,0.0
55942.0,STARLINK-5917,PAYLOAD,2023-07-21 22:00:00,15.17610357,0.0003021,70.0,189.6556,266.4232,322.7404,-0.050061,-0.00933642,0.0,0 STARLINK-5917,1 55942U 23037AE  23202.91667824 -.00933642  00000-0 -50061-1 0  9994,2 55942  70.0000 189.6556 0003021 266.4232 322.7404 15.17610357 20252,6891.202,94.886,515.149,510.985,0.0
55942.0,STARLINK-5917,PAYLOAD,2023-07-24 14:00:01,15.1238906,0.0003104,70.0,182.7562,274.0559,94.7328,-0.059396,-0.00953508,0.0,0 STARLINK-5917,1 55942U 23037AE  23205.58334491 -.00953508  00000-0 -59396-1 0  9994,2 55942  70.0000 182.7562 0003104 274.0559  94.7328 15.12389060  2241,6907.054,95.214,531.063,526.775,0.0
55942.0,STARLINK-5917,PAYLOAD,2023-07-25 14:00:01,15.10428227,0.0003072,69.9998,180.1832,274.265,134.0366,-0.062261,-0.00946917,0.0,0 STARLINK-5917,1 55942U 23037AE  23206.58335648 -.00946917  00000-0 -62261-1 0  9991,2 55942  69.9998 180.1832 0003072 274.2650 134.0366 15.10428227  2397,6913.03,95.337,537.019,532.771,0.0
55942.0,STARLINK-5917,PAYLOAD,2023-07-26 14:00:01,15.08467604,0.0003032,69.9996,177.6179,273.9688,166.6792,-0.06523,-0.00940414,0.0,0 STARLINK-5917,1 55942U 23037AE  23207.58334491 -.00940414  00000-0 -65230-1 0  9992,2 55942  69.9996 177.6179 0003032 273.9688 166.6792 15.08467604  2543,6919.019,95.461,542.982,538.786,0.0
55942.0,STARLINK-5917,PAYLOAD,2023-07-26 22:00:01,15.0783845,0.0003067,69.9998,176.7645,268.8086,181.1266,-0.06765,-0.00957272,0.0,0 STARLINK-5917,1 55942U 23037AE  23207.91668981 -.00957272  00000-0 -67650-1 0  9991,2 55942  69.9998 176.7645 0003067 268.8086 181.1266 15.07838450 21006,6920.943,95.501,544.931,540.686,0.0
55942.0,STARLINK-5917,PAYLOAD,2023-07-27 14:00:01,15.06507189,0.0002988,69.9993,175.0604,272.7529,193.2633,-0.068335,-0.0093437,0.0,0 STARLINK-5917,1 55942U 23037AE  23208.58334491 -.00934370  00000-0 -68335-1 0  9996,2 55942  69.9993 175.0604 0002988 272.7529 193.2633 15.06507189 21109,6925.02,95.585,548.954,544.816,0.0
55942.0,STARLINK-5917,PAYLOAD,2023-07-27 22:00:00,15.05883899,0.000303,69.9996,174.2096,267.6304,205.262,-0.071686,-0.00961529,0.0,0 STARLINK-5917,1 55942U 23037AE  23208.91667824 -.00961529  00000-0 -71686-1 0  9991,2 55942  69.9996 174.2096 0003030 267.6304 205.2620 15.05883899  2755,6926.931,95.625,550.895,546.697,0.0
55942.0,STARLINK-5917,PAYLOAD,2023-07-28 14:00:01,15.04546649,0.0002985,69.9992,172.5106,271.503,212.8414,-0.071522,-0.00928045,0.0,0 STARLINK-5917,1 55942U 23037AE  23209.58334491 -.00928045  00000-0 -71522-1 0  9991,2 55942  69.9992 172.5106 0002985 271.5030 212.8414 15.04546649  2856,6931.035,95.71,554.969,550.831,0.0
55942.0,STARLINK-5917,PAYLOAD,2023-07-28 22:00:00,15.03928124,0.0002993,69.9995,171.6624,266.7773,222.0948,-0.075748,-0.00975044,0.0,0 STARLINK-5917,1 55942U 23037AE  23209.91667824 -.00975044  00000-0 -75748-1 0  9992,2 55942  69.9995 171.6624 0002993 266.7773 222.0948 15.03928124 21300,6932.935,95.749,556.875,552.725,0.0
55942.0,STARLINK-5917,PAYLOAD,2023-07-29 14:00:01,15.02585947,0.0002995,69.9993,169.9685,270.5657,225.129,-0.074783,-0.00921362,0.0,0 STARLINK-5917,1 55942U 23037AE  23210.58335648 -.00921362  00000-0 -74783-1 0  9995,2 55942  69.9993 169.9685 0002995 270.5657 225.1290 15.02585947 21407,6937.063,95.835,561.005,556.85,0.0
55942.0,STARLINK-5917,PAYLOAD,2023-07-30 22:00:00,14.99950709,0.0002989,70.0001,166.5913,265.6241,234.0995,-0.069133,-0.00802732,0.0,0 STARLINK-5917,1 55942U 23037AE  23211.91667824 -.00802732  00000-0 -69133-1 0  9999,2 55942  70.0001 166.5913 0002989 265.6241 234.0995 14.99950709 21615,6945.185,96.003,569.126,564.975,0.0
55942.0,STARLINK-5917,PAYLOAD,2023-07-31 06:00:00,14.99278131,0.0002937,70.0001,165.7492,272.2843,226.5232,0.0027153,0.00033269,0.0,0 STARLINK-5917,1 55942U 23037AE  23212.25001157  .00033269  00000-0  27153-2 0  9994,2 55942  70.0001 165.7492 0002937 272.2843 226.5232 14.99278131 21659,6947.262,96.046,571.168,567.087,0.0
55942.0,STARLINK-5917,PAYLOAD,2023-07-31 22:00:00,14.99312933,0.0002929,70.0006,164.0661,264.0136,232.0585,-0.0006194,-7.667e-05,0.0,0 STARLINK-5917,1 55942U 23037AE  23212.91667824 -.00007667  00000-0 -61940-3 0  9994,2 55942  70.0006 164.0661 0002929 264.0136 232.0585 14.99312933 21752,6947.155,96.044,571.055,566.985,0.0
55942.0,STARLINK-5917,PAYLOAD,2023-08-02 06:00:00,14.9929542,0.0002865,70.0009,160.6995,271.7396,218.9458,0.0010152,0.00012348,0.0,0 STARLINK-5917,1 55942U 23037AE  23214.25001157  .00012348  00000-0  10152-2 0  9992,2 55942  70.0009 160.6995 0002865 271.7396 218.9458 14.99295420 21954,6947.209,96.045,571.064,567.084,0.0
55942.0,STARLINK-5917,PAYLOAD,2023-08-02 22:00:01,14.99462925,0.0002791,70.0012,159.0162,266.4765,221.5334,-0.036828,-0.00426192,0.0,0 STARLINK-5917,1 55942U 23037AE  23214.91668981 -.00426192  00000-0 -36828-1 0  9994,2 55942  70.0012 159.0162 0002791 266.4765 221.5334 14.99462925 22056,6946.692,96.034,570.495,566.618,0.0
55942.0,STARLINK-5917,PAYLOAD,2023-08-03 02:14:05,14.99302656,0.0002612,69.9993,158.571,265.5932,94.4929,7.5578e-05,8.31e-06,0.0,0 STARLINK-5917,1 55942U 23037AE  23215.09312379  .00000831  00000-0  75578-4 0  9995,2 55942  69.9993 158.5710 0002612 265.5932  94.4929 14.99302656 22086,6947.187,96.045,570.866,567.237,0.0
55942.0,STARLINK-5917,PAYLOAD,2023-08-03 07:02:27,14.99193918,0.0002077,69.9993,158.0659,278.7558,81.3366,-0.0011023,-0.00013517,0.0,0 STARLINK-5917,1 55942U 23037AE  23215.29337444 -.00013517  00000-0 -11023-2 0  9997,2 55942  69.9993 158.0659 0002077 278.7558  81.3366 14.99193918 22111,6947.523,96.052,570.831,567.945,0.0
55942.0,STARLINK-5917,PAYLOAD,2023-08-03 22:00:00,14.98366149,0.0002909,70.0012,156.4929,265.4693,216.8171,-0.0051479,-0.00061042,0.0,0 STARLINK-5917,1 55942U 23037AE  23215.91667824 -.00061042  00000-0 -51479-2 0  9999,2 55942  70.0012 156.4929 0002909 265.4693 216.8171 14.98366149 22201,6950.081,96.105,573.968,569.924,0.0
55942.0,STARLINK-5917,PAYLOAD,2023-08-04 14:00:01,14.98307522,0.0002957,70.0009,154.8119,267.2162,210.0445,0.001378,0.00016378,0.0,0 STARLINK-5917,1 55942U 23037AE  23216.58334491  .00016378  00000-0  13780-2 0  9997,2 55942  70.0009 154.8119 0002957 267.2162 210.0445 14.98307522 22305,6950.262,96.108,574.183,570.072,0.0
55942.0,STARLINK-5917,PAYLOAD,2023-08-05 22:00:01,14.98367717,0.0003038,70.0008,151.4501,266.7519,200.4968,-0.0026686,-0.00031821,0.0,0 STARLINK-5917,1 55942U 23037AE  23217.91668981 -.00031821  00000-0 -26686-2 0  9990,2 55942  70.0008 151.4501 0003038 266.7519 200.4968 14.98367717 22500,6950.076,96.105,574.053,569.83,0.0
55942.0,STARLINK-5917,PAYLOAD,2023-08-07 02:21:50,14.9832387,0.00029,69.9991,148.4708,268.6164,91.4663,-9.3722e-05,-1.211e-05,0.0,0 STARLINK-5917,1 55942U 23037AE  23219.09850263 -.00001211  00000-0 -93722-4 0  9994,2 55942  69.9991 148.4708 0002900 268.6164  91.4663 14.98323870 22688,6950.212,96.107,574.092,570.061,0.0
55942.0,STARLINK-5917,PAYLOAD,2023-08-07 11:58:38,14.98332034,0.0002818,69.9993,147.4605,270.8182,89.2654,-1.682e-05,-2.94e-06,0.0,0 STARLINK-5917,1 55942U 23037AE  23219.49905617 -.00000294  00000-0 -16820-4 0  9996,2 55942  69.9993 147.4605 0002818 270.8182  89.2654 14.98332034 22742,6950.187,96.107,574.01,570.093,0.0
55942.0,STARLINK-5917,PAYLOAD,2023-08-07 23:11:34,14.9833746,0.000287,69.9992,146.2822,271.2655,88.8175,5.6761e-05,5.84e-06,0.0,0 STARLINK-5917,1 55942U 23037AE  23219.96636954  .00000584  00000-0  56761-4 0  9991,2 55942  69.9992 146.2822 0002870 271.2655  88.8175 14.98337460 22816,6950.17,96.107,574.03,570.04,0.0
55942.0,STARLINK-5917,PAYLOAD,2023-08-08 05:36:05,14.98344339,0.0002878,69.9991,145.609,269.8129,90.2701,0.00012558,1.406e-05,0.0,0 STARLINK-5917,1 55942U 23037AE  23220.23340149  .00001406  00000-0  12558-3 0  9990,2 55942  69.9991 145.6090 0002878 269.8129  90.2701 14.98344339 22851,6950.149,96.106,574.014,570.013,0.0
55942.0,STARLINK-5917,PAYLOAD,2023-08-08 12:00:38,14.98337598,0.0002662,69.9995,144.9353,270.8961,89.1893,2.5949e-05,2.17e-06,0.0,0 STARLINK-5917,1 55942U 23037AE  23220.50044717  .00000217  00000-0  25949-4 0  9990,2 55942  69.9995 144.9353 0002662 270.8961  89.1893 14.98337598 22898,6950.169,96.107,573.885,570.184,0.0
55942.0,STARLINK-5917,PAYLOAD,2023-08-08 18:25:11,14.9832762,0.0002591,70.0002,144.2639,267.3526,92.7336,8.5851e-05,9.31e-06,0.0,0 STARLINK-5917,1 55942U 23037AE  23220.76749217  .00000931  00000-0  85851-4 0  9996,2 55942  70.0002 144.2639 0002591 267.3526  92.7336 14.98327620 22931,6950.2,96.107,573.866,570.264,0.0
